[{"OBJECT_NAME":"STARLINK-35272","OBJECT_ID":"2025-224T","EPOCH":"2026-03-09T03:18:38.807424","MEAN_MOTION":15.30219147,"ECCENTRICITY":0.00010919,"INCLINATION":53.1594,"RA_OF_ASC_NODE":13.6334,"ARG_OF_PERICENTER":73.1013,"MEAN_ANOMALY":287.0107,"EPHEMERIS_TYPE":0,"CLASSIFICATION_TYPE":"U","NORAD_CAT_ID":65899,"ELEMENT_SET_NO":999,"REV_AT_EPOCH":2478,"BSTAR":0.0011594227,"MEAN_MOTION_DOT":0.00034158,"MEAN_MOTION_DDOT":0},{"OBJECT_NAME":"FENGYUN 1C DEB","OBJECT_ID":"1999-025AJJ","EPOCH":"2026-03-09T18:40:58.380672","MEAN_MOTION":15.18672988,"ECCENTRICITY":0.00638575,"INCLINATION":98.7226,"RA_OF_ASC_NODE":259.4919,"ARG_OF_PERICENTER":168.3626,"MEAN_ANOMALY":191.9098,"EPHEMERIS_TYPE":0,"CLASSIFICATION_TYPE":"U","NORAD_CAT_ID":30520,"ELEMENT_SET_NO":999,"REV_AT_EPOCH":2360,"BSTAR":0.0014000942,"MEAN_MOTION_DOT":0.0003064,"MEAN_MOTION_DDOT":0}]
